[{"OBJECT_NAME":"TIANPING 2C","OBJECT_ID":"2022-032D","EPOCH":"2026-03-09T22:24:23.522112","MEAN_MOTION":15.10225163,"ECCENTRICITY":0.00079422,"INCLINATION":97.5961,"RA_OF_ASC_NODE":122.1196,"ARG_OF_PERICENTER":128.8925,"MEAN_ANOMALY":231.3013,"EPHEMERIS_TYPE":0,"CLASSIFICATION_TYPE":"U","NORAD_CAT_ID":52156,"ELEMENT_SET_NO":999,"REV_AT_EPOCH":21586,"BSTAR":0.00036090623,"MEAN_MOTION_DOT":5.841e-5,"MEAN_MOTION_DDOT":0},{"OBJECT_NAME":"STARLINK-5358","OBJECT_ID":"2023-090AU","EPOCH":"2026-03-09T22:00:01.999584","MEAN_MOTION":15.08668791,"ECCENTRICITY":0.00016126,"INCLINATION":43.0007,"RA_OF_ASC_NODE":260.3086,"ARG_OF_PERICENTER":272.471,"MEAN_ANOMALY":265.5571,"EPHEMERIS_TYPE":0,"CLASSIFICATION_TYPE":"U","NORAD_CAT_ID":57143,"ELEMENT_SET_NO":999,"REV_AT_EPOCH":577,"BSTAR":0.040938166,"MEAN_MOTION_DOT":0.00700841,"MEAN_MOTION_DDOT":0}]
